start=new Date('2021-09-12T00:00:00.000Z').valueOf();
sats=[{"REF_FRAME":"TEME","APOAPSIS":"548.225","SITE":"AFETR","NORAD_CAT_ID":"45680","EPOCH":"2021-09-11T06:57:05.152608","MEAN_MOTION":"15.06401142","CENTER_NAME":"EARTH","ELEMENT_SET_NO":"999","PERIOD":"95.592","CLASSIFICATION_TYPE":"U","MEAN_ANOMALY":"306.0853","TIME_SYSTEM":"UTC","GP_ID":"184504806","MEAN_MOTION_DDOT":"0.0000000000000","REV_AT_EPOCH":"7161","OBJECT_NAME":"STARLINK-1395","ARG_OF_PERICENTER":"54.0272","TLE_LINE2":"2 45680  53.0539 220.6689 0001466  54.0272 306.0853 15.06401142 71614","PERIAPSIS":"546.195","MEAN_ELEMENT_THEORY":"SGP4","OBJECT_TYPE":"PAYLOAD","COUNTRY_CODE":"US","DECAY_DATE":null,"BSTAR":"-0.00001453700000","EPHEMERIS_TYPE":"0","INCLINATION":"53.0539","RA_OF_ASC_NODE":"220.6689","RCS_SIZE":"LARGE","FILE":"3113181","TLE_LINE1":"1 45680U 20035Z   21254.28964297 -.00000498  00000-0 -14537-4 0  9991","ECCENTRICITY":"0.00014660","SEMIMAJOR_AXIS":"6925.345","OBJECT_ID":"2020-035Z","LAUNCH_DATE":"2020-06-04","MEAN_MOTION_DOT":"-0.00000498"},{"LAUNCH_DATE":"2020-06-04","OBJECT_ID":"2020-035AA","MEAN_MOTION_DOT":"0.00001172","FILE":"3113181","TLE_LINE1":"1 45681U 20035AA  21254.28595251  .00001172  00000-0  97585-4 0  9994","SEMIMAJOR_AXIS":"6925.347","ECCENTRICITY":"0.00011100","RA_OF_ASC_NODE":"220.6847","RCS_SIZE":"LARGE","DECAY_DATE":null,"COUNTRY_CODE":"US","BSTAR":"0.00009758500000","EPHEMERIS_TYPE":"0","INCLINATION":"53.0527","OBJECT_TYPE":"PAYLOAD","MEAN_ELEMENT_THEORY":"SGP4","TLE_LINE2":"2 45681  53.0527 220.6847 0001110  61.9616 298.1485 15.06400441 71627","PERIAPSIS":"546.443","REV_AT_EPOCH":"7162","OBJECT_NAME":"STARLINK-1396","ARG_OF_PERICENTER":"61.9616","MEAN_ANOMALY":"298.1485","MEAN_MOTION_DDOT":"0.0000000000000","GP_ID":"184505056","TIME_SYSTEM":"UTC","PERIOD":"95.592","CLASSIFICATION_TYPE":"U","ELEMENT_SET_NO":"999","CENTER_NAME":"EARTH","APOAPSIS":"547.981","SITE":"AFETR","NORAD_CAT_ID":"45681","MEAN_MOTION":"15.06400441","EPOCH":"2021-09-11T06:51:46.296864","REF_FRAME":"TEME"},{"MEAN_ANOMALY":"306.1807","GP_ID":"184505805","TIME_SYSTEM":"UTC","MEAN_MOTION_DDOT":"0.0000000000000","OBJECT_NAME":"STARLINK-1397","ARG_OF_PERICENTER":"53.9292","REV_AT_EPOCH":"7163","ELEMENT_SET_NO":"999","PERIOD":"95.592","CLASSIFICATION_TYPE":"U","CENTER_NAME":"EARTH","REF_FRAME":"TEME","NORAD_CAT_ID":"45682","MEAN_MOTION":"15.06402896","EPOCH":"2021-09-11T10:13:29.026560","APOAPSIS":"548.031","SITE":"AFETR","MEAN_MOTION_DOT":"-0.00000420","OBJECT_ID":"2020-035AB","LAUNCH_DATE":"2020-06-04","SEMIMAJOR_AXIS":"6925.340","TLE_LINE1":"1 45682U 20035AB  21254.42603040 -.00000420  00000-0 -93125-5 0  9991","ECCENTRICITY":"0.00011930","FILE":"3113181","BSTAR":"-0.00000931250000","EPHEMERIS_TYPE":"0","INCLINATION":"53.0545","COUNTRY_CODE":"US","DECAY_DATE":null,"RCS_SIZE":"LARGE","RA_OF_ASC_NODE":"220.0569","TLE_LINE2":"2 45682  53.0545 220.0569 0001193  53.9292 306.1807 15.06402896 71630","PERIAPSIS":"546.378","MEAN_ELEMENT_THEORY":"SGP4","OBJECT_TYPE":"PAYLOAD"},{"LAUNCH_DATE":"2020-06-04","OBJECT_ID":"2020-035AC","MEAN_MOTION_DOT":"0.00000275","FILE":"3113181","ECCENTRICITY":"0.00014940","TLE_LINE1":"1 45683U 20035AC  21254.40759843  .00000275  00000-0  37359-4 0  9995","SEMIMAJOR_AXIS":"6925.372","DECAY_DATE":null,"COUNTRY_CODE":"US","INCLINATION":"53.0542","EPHEMERIS_TYPE":"0","BSTAR":"0.00003735900000","RA_OF_ASC_NODE":"220.1359","RCS_SIZE":"LARGE","TLE_LINE2":"2 45683  53.0542 220.1359 0001494  49.9452 310.1668 15.06392456 71644","PERIAPSIS":"546.202","MEAN_ELEMENT_THEORY":"SGP4","OBJECT_TYPE":"PAYLOAD","MEAN_MOTION_DDOT":"0.0000000000000","GP_ID":"184506053","TIME_SYSTEM":"UTC","MEAN_ANOMALY":"310.1668","REV_AT_EPOCH":"7164","ARG_OF_PERICENTER":"49.9452","OBJECT_NAME":"STARLINK-1399","ELEMENT_SET_NO":"999","CLASSIFICATION_TYPE":"U","PERIOD":"95.593","CENTER_NAME":"EARTH","REF_FRAME":"TEME","SITE":"AFETR","APOAPSIS":"548.271","EPOCH":"2021-09-11T09:46:56.504352","MEAN_MOTION":"15.06392456","NORAD_CAT_ID":"45683"},{"MEAN_MOTION_DOT":"-0.00000377","LAUNCH_DATE":"2020-06-04","OBJECT_ID":"2020-035AD","TLE_LINE1":"1 45684U 20035AD  21254.38547932 -.00000377  00000-0 -63852-5 0  9990","ECCENTRICITY":"0.00015320","SEMIMAJOR_AXIS":"6925.358","FILE":"3113181","RCS_SIZE":"LARGE","RA_OF_ASC_NODE":"220.2367","BSTAR":"-0.00000638520000","EPHEMERIS_TYPE":"0","INCLINATION":"53.0534","DECAY_DATE":null,"COUNTRY_CODE":"US","OBJECT_TYPE":"PAYLOAD","MEAN_ELEMENT_THEORY":"SGP4","TLE_LINE2":"2 45684  53.0534 220.2367 0001532  63.2673 296.8473 15.06396978 71640","PERIAPSIS":"546.162","OBJECT_NAME":"STARLINK-1401","ARG_OF_PERICENTER":"63.2673","REV_AT_EPOCH":"7164","MEAN_ANOMALY":"296.8473","GP_ID":"184505307","MEAN_MOTION_DDOT":"0.0000000000000","TIME_SYSTEM":"UTC","PERIOD":"95.592","CLASSIFICATION_TYPE":"U","ELEMENT_SET_NO":"999","CENTER_NAME":"EARTH","NORAD_CAT_ID":"45684","MEAN_MOTION":"15.06396978","EPOCH":"2021-09-11T09:15:05.413248","SITE":"AFETR","APOAPSIS":"548.284","REF_FRAME":"TEME"},{"PERIOD":"95.593","CLASSIFICATION_TYPE":"U","ELEMENT_SET_NO":"999","OBJECT_NAME":"STARLINK-1402","ARG_OF_PERICENTER":"57.1430","REV_AT_EPOCH":"7164","MEAN_ANOMALY":"302.9685","TIME_SYSTEM":"UTC","GP_ID":"184505557","MEAN_MOTION_DDOT":"0.0000000000000","NORAD_CAT_ID":"45685","MEAN_MOTION":"15.06392454","EPOCH":"2021-09-11T09:09:47.130336","SITE":"AFETR","APOAPSIS":"548.141","REF_FRAME":"TEME","CENTER_NAME":"EARTH","ECCENTRICITY":"0.00013060","TLE_LINE1":"1 45685U 20035AE  21254.38179549  .00001107  00000-0  93222-4 0  9999","SEMIMAJOR_AXIS":"6925.372","FILE":"3113181","MEAN_MOTION_DOT":"0.00001107","LAUNCH_DATE":"2020-06-04","OBJECT_ID":"2020-035AE","OBJECT_TYPE":"PAYLOAD","MEAN_ELEMENT_THEORY":"SGP4","TLE_LINE2":"2 45685  53.0542 220.2562 0001306  57.1430 302.9685 15.06392454 71648","PERIAPSIS":"546.332","RCS_SIZE":"LARGE","RA_OF_ASC_NODE":"220.2562","BSTAR":"0.00009322200000","INCLINATION":"53.0542","EPHEMERIS_TYPE":"0","COUNTRY_CODE":"US","DECAY_DATE":null},{"DECAY_DATE":null,"COUNTRY_CODE":"US","BSTAR":"0.00022360000000","INCLINATION":"53.0526","EPHEMERIS_TYPE":"0","RA_OF_ASC_NODE":"220.2889","RCS_SIZE":"LARGE","PERIAPSIS":"546.287","TLE_LINE2":"2 45686  53.0526 220.2889 0001295  49.6112 310.4990 15.06409665 71649","MEAN_ELEMENT_THEORY":"SGP4","OBJECT_TYPE":"PAYLOAD","OBJECT_ID":"2020-035AF","LAUNCH_DATE":"2020-06-04","MEAN_MOTION_DOT":"0.00003051","FILE":"3113181","TLE_LINE1":"1 45686U 20035AF  21254.37441607  .00003051  00000-0  22360-3 0  9990","ECCENTRICITY":"0.00012950","SEMIMAJOR_AXIS":"6925.319","CENTER_NAME":"EARTH","REF_FRAME":"TEME","SITE":"AFETR","APOAPSIS":"548.081","NORAD_CAT_ID":"45686","EPOCH":"2021-09-11T08:59:09.548448","MEAN_MOTION":"15.06409665","MEAN_ANOMALY":"310.4990","GP_ID":"184506306","MEAN_MOTION_DDOT":"0.0000000000000","TIME_SYSTEM":"UTC","REV_AT_EPOCH":"7164","OBJECT_NAME":"STARLINK-1404","ARG_OF_PERICENTER":"49.6112","ELEMENT_SET_NO":"999","PERIOD":"95.592","CLASSIFICATION_TYPE":"U"},{"RA_OF_ASC_NODE":"210.3775","RCS_SIZE":"LARGE","DECAY_DATE":null,"COUNTRY_CODE":"US","BSTAR":"-0.00001115800000","EPHEMERIS_TYPE":"0","INCLINATION":"53.0009","OBJECT_TYPE":"PAYLOAD","MEAN_ELEMENT_THEORY":"SGP4","TLE_LINE2":"2 45687  53.0009 210.3775 0001166  36.8199 323.2869 15.05592402 71750","PERIAPSIS":"548.882","OBJECT_ID":"2020-035AG","LAUNCH_DATE":"2020-06-04","MEAN_MOTION_DOT":"-0.00000442","FILE":"3113181","SEMIMAJOR_AXIS":"6927.825","TLE_LINE1":"1 45687U 20035AG  21254.35274653 -.00000442  00000-0 -11158-4 0  9991","ECCENTRICITY":"0.00011660","CENTER_NAME":"EARTH","APOAPSIS":"550.498","SITE":"AFETR","NORAD_CAT_ID":"45687","MEAN_MOTION":"15.05592402","EPOCH":"2021-09-11T08:27:57.300192","REF_FRAME":"TEME","REV_AT_EPOCH":"7175","OBJECT_NAME":"STARLINK-1406","ARG_OF_PERICENTER":"36.8199","MEAN_ANOMALY":"323.2869","TIME_SYSTEM":"UTC","GP_ID":"184506554","MEAN_MOTION_DDOT":"0.0000000000000","PERIOD":"95.643","CLASSIFICATION_TYPE":"U","ELEMENT_SET_NO":"999"},{"CENTER_NAME":"EARTH","NORAD_CAT_ID":"45688","EPOCH":"2021-09-11T10:24:05.231232","MEAN_MOTION":"15.06407462","SITE":"AFETR","APOAPSIS":"548.119","REF_FRAME":"TEME","OBJECT_NAME":"STARLINK-1408","ARG_OF_PERICENTER":"73.0551","REV_AT_EPOCH":"7164","MEAN_ANOMALY":"287.0585","GP_ID":"184504807","TIME_SYSTEM":"UTC","MEAN_MOTION_DDOT":"0.0000000000000","PERIOD":"95.592","CLASSIFICATION_TYPE":"U","ELEMENT_SET_NO":"999","RCS_SIZE":"LARGE","RA_OF_ASC_NODE":"220.0197","BSTAR":"0.00013301000000","INCLINATION":"53.0524","EPHEMERIS_TYPE":"0","COUNTRY_CODE":"US","DECAY_DATE":null,"OBJECT_TYPE":"PAYLOAD","MEAN_ELEMENT_THEORY":"SGP4","TLE_LINE2":"2 45688  53.0524 220.0197 0001340  73.0551 287.0585 15.06407462 71640","PERIAPSIS":"546.263","MEAN_MOTION_DOT":"0.00001701","OBJECT_ID":"2020-035AH","LAUNCH_DATE":"2020-06-04","TLE_LINE1":"1 45688U 20035AH  21254.43339388  .00001701  00000-0  13301-3 0  9996","SEMIMAJOR_AXIS":"6925.326","ECCENTRICITY":"0.00013400","FILE":"3113181"},{"SEMIMAJOR_AXIS":"6925.357","TLE_LINE1":"1 45689U 20035AJ  21254.39285170  .00001766  00000-0  13739-3 0  9997","ECCENTRICITY":"0.00011130","FILE":"3113181","MEAN_MOTION_DOT":"0.00001766","OBJECT_ID":"2020-035AJ","LAUNCH_DATE":"2020-06-04","TLE_LINE2":"2 45689  53.0523 220.2036 0001113  56.9097 303.1998 15.06397341 71559","PERIAPSIS":"546.451","MEAN_ELEMENT_THEORY":"SGP4","OBJECT_TYPE":"PAYLOAD","BSTAR":"0.00013739000000","INCLINATION":"53.0523","EPHEMERIS_TYPE":"0","COUNTRY_CODE":"US","DECAY_DATE":null,"RCS_SIZE":"LARGE","RA_OF_ASC_NODE":"220.2036","ELEMENT_SET_NO":"999","PERIOD":"95.592","CLASSIFICATION_TYPE":"U","MEAN_ANOMALY":"303.1998","GP_ID":"184505057","MEAN_MOTION_DDOT":"0.0000000000000","TIME_SYSTEM":"UTC","OBJECT_NAME":"STARLINK-1413","ARG_OF_PERICENTER":"56.9097","REV_AT_EPOCH":"7155","REF_FRAME":"TEME","NORAD_CAT_ID":"45689","MEAN_MOTION":"15.06397341","EPOCH":"2021-09-11T09:25:42.386880","APOAPSIS":"547.992","SITE":"AFETR","CENTER_NAME":"EARTH"}];
